GLOBALSTAR M023         
1 25621U 99004A   25273.65490733 -.00000068  00000+0  19990-3 0  9999
2 25621  52.0093  92.2872 0010105   4.6608  72.0976 12.62507363229052
GLOBALSTAR M040         
1 25622U 99004B   25273.67131961 -.00000061  00000+0  24098-3 0  9995
2 25622  51.9902  96.5481 0000110 127.4463 309.8599 12.62018561228576
GLOBALSTAR M036         
1 25623U 99004C   25273.86828117 -.00000028  00000+0  80023-3 0  9996
2 25623  51.9988 321.7690 0010574 251.9307 279.4087 11.86610053191528
GLOBALSTAR M038         
1 25624U 99004D   25273.76746764 -.00000075  00000+0  16233-3 0  9997
2 25624  51.9954 127.5115 0000946 289.8652 149.0590 12.32532794215391
GLOBALSTAR M022         
1 25649U 99012A   25273.74670361 -.00000044  00000+0  50925-3 0  9992
2 25649  52.0077   3.9415 0002671  35.1700 131.6354 12.02502962189070
GLOBALSTAR M041         
1 25650U 99012B   25273.62872322 -.00000072  00000+0  17353-3 0  9991
2 25650  52.0003 248.9285 0001276 154.0879 206.0022 11.96682949190904
GLOBALSTAR M046         
1 25651U 99012C   25273.82690542 -.00000139  00000+0 -54929-3 0  9991
2 25651  52.0060 310.0044 0002259 106.1537  64.5101 12.09412076196440
GLOBALSTAR M037         
1 25652U 99012D   25273.08474127 -.00000076  00000+0  15653-3 0  9999
2 25652  51.9993 224.6049 0002588  57.9707  21.7806 12.62451593224520
